STARLINK-32900          
1 63093U 25037S   25209.38028983  .00001220  00000+0  11005-3 0  9991
2 63093  70.0013 199.9754 0003794 266.3358  93.7367 14.98330741 24869
STARLINK-32927          
1 63094U 25037T   25209.40950659  .00000948  00000+0  87236-4 0  9995
2 63094  70.0010 200.0796 0003433 268.6633  91.4132 14.98333908 24951
STARLINK-32907          
1 63095U 25037U   25209.39698680 -.00000615  00000+0 -43745-4 0  9997
2 63095  70.0010 200.0307 0002883 253.7464 106.3378 14.98334315 24956
STARLINK-32911          
1 63096U 25037V   25209.68489659  .00003708  00000+0  31831-3 0  9990
2 63096  70.0012 199.4318 0003984 270.5816  89.4886 14.98337655 25049
STARLINK-32923          
1 63097U 25037W   25209.36359237  .00001091  00000+0  99228-4 0  9992
2 63097  70.0013 199.9191 0004048 265.1977  94.8720 14.98332259 25003
STARLINK-32913          
1 63098U 25037X   25209.70989581  .00004846  00000+0  41339-3 0  9992
2 63098  70.0014 199.1128 0003452 271.1762  88.9001 14.98353248 24998
STARLINK-11629 [DTC]    
1 63104U 25039A   25209.21299525  .00169104  00000+0  12928-2 0  9990
2 63104  43.0018 149.6930 0002153 283.4573  76.6055 15.70874738 24316
STARLINK-11624 [DTC]    
1 63105U 25039B   25209.19279514  .00177982  00000+0  13571-2 0  9992
2 63105  43.0033 150.4248 0002981 274.9926  85.0601 15.70906994 24302
STARLINK-11584 [DTC]    
1 63106U 25039C   25209.19188514  .00190327  00000+0  14508-2 0  9991
2 63106  43.0030 150.4164 0002587 272.4790  87.5782 15.70875520 24308
STARLINK-11627 [DTC]    
1 63107U 25039D   25209.22361452  .00184139  00000+0  14052-2 0  9998
2 63107  43.0006 149.7760 0001794 275.0033  85.0630 15.70869829 24314
STARLINK-11632 [DTC]    
1 63108U 25039E   25209.23953374  .00222615  00000+0  16832-2 0  9990
2 63108  43.0005 149.9039 0004204 254.8273 105.2130 15.70962998 24316
STARLINK-11625 [DTC]    
1 63109U 25039F   25209.24485021  .00200149  00000+0  15252-2 0  9994
2 63109  43.0019 149.9464 0001945 267.4103  92.6542 15.70852837 24311
STARLINK-11601 [DTC]    
1 63110U 25039G   25209.22891899  .00102145  00000+0  78910-3 0  9996
2 63110  43.0001 149.8185 0002081 253.6414 106.4225 15.70859710 24316
STARLINK-11630 [DTC]    
1 63111U 25039H   25209.18657585  .00193772  00000+0  14778-2 0  9991
2 63111  43.0025 150.3702 0002246 268.4662  91.5948 15.70853333 24307
STARLINK-11590 [DTC]    
1 63112U 25039J   25209.19719348  .00196844  00000+0  14985-2 0  9992
2 63112  43.0038 150.4562 0002788 271.0807  88.9741 15.70885991 24305
STARLINK-11598 [DTC]    
1 63113U 25039K   25209.17065023  .00286506  00000+0  21548-2 0  9993
2 63113  43.0007 150.2422 0002018 284.8833  75.1811 15.70899795 24305
STARLINK-11600 [DTC]    
1 63114U 25039L   25209.21830489  .00234164  00000+0  17741-2 0  9998
2 63114  43.0000 149.7304 0001625 266.3180  93.7502 15.70884979 25025
STARLINK-11597 [DTC]    
1 63115U 25039M   25209.52561069  .00183443  00000+0  13996-2 0  9999
2 63115  43.0002 147.7269 0000688  19.1451 340.9443 15.70877113 24368
STARLINK-11591 [DTC]    
1 63116U 25039N   25209.20237695  .00188301  00000+0  14363-2 0  9997
2 63116  42.9993 149.5993 0001602 266.3266  93.7418 15.70867609 24316
STARLINK-32955          
1 63117U 25039P   25209.24278732  .00017108  00000+0  62974-3 0  9997
2 63117  43.0022 200.0729 0002022 274.7733  85.2888 15.27580416 24464
STARLINK-32945          
1 63118U 25039Q   25209.31588327  .00019826  00000+0  72814-3 0  9993
2 63118  42.9994 199.7569 0001505 271.0704  88.9976 15.27576287 23750
STARLINK-32941          
1 63119U 25039R   25209.84392329 -.00230213  00000+0 -81487-2 0  9999
2 63119  42.9998 185.5868 0002793 312.7105  47.3512 15.29398084 24685
STARLINK-32942          
1 63120U 25039S   25209.32230587  .00028783  00000+0  10513-2 0  9998
2 63120  42.9994 199.8024 0001502 265.0246  95.0434 15.27582353 23750
STARLINK-32947          
1 63121U 25039T   25209.68250483  .00015766  00000+0  58115-3 0  9993
2 63121  42.9971 197.3466 0001572 271.9168  88.1503 15.27583468 24530
STARLINK-32961          
1 63122U 25039U   25209.46464358  .00026649  00000+0  97374-3 0  9990
2 63122  43.0012 199.1563 0001753 256.2910 103.7747 15.27603148 23776
STARLINK-32948          
1 63123U 25039V   25209.26077431  .00014251  00000+0  52630-3 0  9993
2 63123  43.0004 200.2050 0000919 264.5309  95.5438 15.27584860 23741
STARLINK-32957          
1 63124U 25039W   25209.66723139  .00013308  00000+0  49228-3 0  9992
2 63124  42.9988 198.0981 0000820 271.1010  88.9748 15.27578762 24501
STARLINK-11609 [DTC]    
1 63132U 25043A   25209.89432560  .00183881  00000+0  14017-2 0  9997
2 63132  42.9989 159.7998 0001192 250.0936 109.9803 15.70896928 24263
STARLINK-11604 [DTC]    
1 63133U 25043B   25209.27973276  .00175499  00000+0  13402-2 0  9997
2 63133  43.0010 163.8024 0002277 283.1375  76.9239 15.70880281 24054
STARLINK-11605 [DTC]    
1 63134U 25043C   25209.77246718  .00176705  00000+0  13487-2 0  9991
2 63134  43.0001 160.6078 0001231 255.7925 104.2806 15.70889963 24134
STARLINK-11610 [DTC]    
1 63135U 25043D   25209.84136033  .00174624  00000+0  13334-2 0  9997
2 63135  42.9992 160.2663 0001227 250.4022 109.6713 15.70886245 24140
STARLINK-11613 [DTC]    
1 63136U 25043E   25209.84666989  .00187354  00000+0  14265-2 0  9994
2 63136  42.9989 160.3088 0000664 265.1254  94.9538 15.70913639 24265
STARLINK-11616 [DTC]    
1 63137U 25043F   25209.22754290  .00217544  00000+0  16476-2 0  9991
2 63137  43.0000 163.3791 0003776 252.8232 107.2222 15.70940575 24179
STARLINK-11611 [DTC]    
1 63138U 25043G   25209.56048873  .00182933  00000+0  13961-2 0  9991
2 63138  43.0010 161.5837 0000300 330.7966  29.2885 15.70871660 24224
STARLINK-11628 [DTC]    
1 63139U 25043H   25209.56579693  .00166970  00000+0  12772-2 0  9993
2 63139  42.9990 161.6268 0000536 316.2293  43.8532 15.70868962 24224
STARLINK-11607 [DTC]    
1 63140U 25043J   25209.23194325  .00246131  00000+0  18578-2 0  9992
2 63140  43.0029 163.4153 0003169 271.9189  88.1315 15.70935358 24179
STARLINK-11522 [DTC]    
1 63141U 25043K   25209.23725438  .00188695  00000+0  14375-2 0  9999
2 63141  42.9996 163.4553 0001755 280.4970  79.5700 15.70896137 23999
STARLINK-11503 [DTC]    
1 63142U 25043L   25209.22131518  .00241233  00000+0  18230-2 0  9991
2 63142  43.0000 163.3274 0002209 292.3989  67.6644 15.70923664 23995
STARLINK-11579 [DTC]    
1 63143U 25043M   25209.22663077  .00198021  00000+0  15042-2 0  9996
2 63143  42.9995 163.3703 0003808 253.0064 107.0386 15.70930628 24056
STARLINK-11581 [DTC]    
1 63144U 25043N   25209.57110638  .00191951  00000+0  14629-2 0  9990
2 63144  42.9994 161.6670 0000493 306.0752  54.0070 15.70875945 24220
STARLINK-32949          
1 63145U 25043P   25209.70522686  .00016483  00000+0  60704-3 0  9998
2 63145  43.0002 201.4466 0002036 274.1055  85.9564 15.27586604 23677
STARLINK-32952          
1 63146U 25043Q   25209.41443875  .00009395  00000+0  35045-3 0  9993
2 63146  42.9993 209.6133 0001491 267.6693  92.3988 15.27583610 23615
STARLINK-32936          
1 63147U 25043R   25208.50160006  .00014396  00000+0  53144-3 0  9992
2 63147  42.9988 214.8241 0001305 278.0921  81.9782 15.27591991 22843
STARLINK-32937          
1 63148U 25043S   25209.41798025  .00014589  00000+0  53849-3 0  9998
2 63148  42.9989 202.7336 0001489 270.7219  89.3462 15.27587328 23069
STARLINK-32939          
1 63149U 25043T   25209.66925212  .00018401  00000+0  67653-3 0  9991
2 63149  42.9945 201.1816 0000261 350.6145   9.4702 15.27578876 23733
STARLINK-32919          
1 63150U 25043U   25209.68338819  .00015891  00000+0  58573-3 0  9997
2 63150  42.9965 201.2842 0000410 356.0359   4.0490 15.27580703 23782
STARLINK-32876          
1 63151U 25043V   25209.45380176  .00017107  00000+0  62916-3 0  9994
2 63151  43.0029 202.1387 0002760 279.2336  80.8204 15.27608365 23073
STARLINK-32915          
1 63152U 25043W   25209.09135816  .00024055  00000+0  88085-3 0  9999
2 63152  43.0008 211.4612 0000857 232.5042 127.5732 15.27578179 22934
STARLINK-11602 [DTC]    
1 63183U 25048A   25209.40626480  .00229899  00000+0  17453-2 0  9998
2 63183  43.0001 232.1247 0002025 266.3967  93.6669 15.70849852 22866
STARLINK-11617 [DTC]    
1 63184U 25048B   25209.78246513  .00202883  00000+0  15437-2 0  9999
2 63184  42.9980 229.7823 0000554  55.6207 304.4713 15.70880135 22888
STARLINK-11618 [DTC]    
1 63185U 25048C   25209.75059827  .00202751  00000+0  15411-2 0  9993
2 63185  42.9971 229.5255 0002019 276.6597  83.4041 15.70905076 22870
STARLINK-11646 [DTC]    
1 63186U 25048D   25209.42206690  .00153478  00000+0  11765-2 0  9999
2 63186  42.9999 231.3538 0001269 291.8466  68.2266 15.70863028 23259
STARLINK-11622 [DTC]    
1 63187U 25048E   25209.41157409  .00071494  00000+0  55578-3 0  9990
2 63187  43.0008 232.1656 0001630 273.8323  86.2358 15.70844188 23244
STARLINK-11642 [DTC]    
1 63188U 25048F   25209.77183731  .00188426  00000+0  14324-2 0  9994
2 63188  43.0011 229.6946 0002215 280.4820  79.5798 15.70947147 22878
STARLINK-11639 [DTC]    
1 63189U 25048G   25209.06180314  .00229242  00000+0  17307-2 0  9997
2 63189  42.9976 233.8239 0005426 290.4102  69.6182 15.70972308 23190
STARLINK-11637 [DTC]    
1 63190U 25048H   25209.53965544  .00246033  00000+0  18643-2 0  9998
2 63190  42.9990 231.4057 0001064 278.5678  81.5069 15.70844744 22838
STARLINK-11647 [DTC]    
1 63191U 25048J   25209.43799054  .00166668  00000+0  12746-2 0  9992
2 63191  43.0017 231.4784 0001681 276.6517  83.4159 15.70875339 23256
STARLINK-11643 [DTC]    
1 63192U 25048K   25209.76652992  .00192778  00000+0  14682-2 0  9990
2 63192  43.0005 229.6502 0000749 294.0721  66.0068 15.70889878 22872
STARLINK-11635 [DTC]    
1 63193U 25048L   25209.74529256  .00158899  00000+0  12166-2 0  9996
2 63193  42.9993 229.4780 0000819 285.6449  74.4328 15.70873474 22871
